CCSDS_OMM_VERS,COMMENT,CREATION_DATE,ORIGINATOR,OBJECT_NAME,OBJECT_ID,CENTER_NAME,REF_FRAME,TIME_SYSTEM,MEAN_ELEMENT_THEORY,EPOCH,MEAN_MOTION,ECCENTRICITY,INCLINATION,RA_OF_ASC_NODE,ARG_OF_PERICENTER,MEAN_ANOMALY,EPHEMERIS_TYPE,CLASSIFICATION_TYPE,NORAD_CAT_ID,ELEMENT_SET_NO,REV_AT_EPOCH,BSTAR,MEAN_MOTION_DOT,MEAN_MOTION_DDOT,SEMIMAJOR_AXIS,PERIOD,APOAPSIS,PERIAPSIS,OBJECT_TYPE,RCS_SIZE,COUNTRY_CODE,LAUNCH_DATE,SITE,DECAY_DATE,FILE,GP_ID,TLE_LINE0,TLE_LINE1,TLE_LINE2
"2.0","GENERATED VIA SPACE-TRACK.ORG API","2012-09-26T07:13:08","18 SPCS","BLITS","2009-049G","EARTH","TEME","UTC","SGP4","2012-09-26T03:19:16.562496","14.21588778","0.00045340","98.6355","321.5493","112.4109","247.7547","0","U","35871","999","15630","0.00002458800000","0.00000011","0.0000000000000","7198.126","101.295","823.254","816.727","PAYLOAD","SMALL","CIS","2009-09-17","TTMTR","","1357380","90749424","0 BLITS","1 35871U 09049G   12270.13838614  .00000011  00000-0  24588-4 0  9995","2 35871 098.6355 321.5493 0004534 112.4109 247.7547 14.21588778156305"
"2.0","GENERATED VIA SPACE-TRACK.ORG API","2012-09-26T18:22:04","18 SPCS","BLITS","2009-049G","EARTH","TEME","UTC","SGP4","2012-09-26T16:50:05.749152","14.21588646","0.00045180","98.6355","322.1003","111.2997","248.8651","0","U","35871","999","15638","0.00001827300000","-0.00000003","0.0000000000000","7198.126","101.295","823.243","816.739","PAYLOAD","SMALL","CIS","2009-09-17","TTMTR","","1357554","90759063","0 BLITS","1 35871U 09049G   12270.70145543 -.00000003  00000-0  18273-4 0  9996","2 35871 098.6355 322.1003 0004518 111.2997 248.8651 14.21588646156383"
"2.0","GENERATED VIA SPACE-TRACK.ORG API","2012-09-27T08:43:47","18 SPCS","BLITS","2009-049G","EARTH","TEME","UTC","SGP4","2012-09-27T13:06:19.533023","14.21588703","0.00045350","98.6347","322.9266","109.0087","251.1579","0","U","35871","999","15650","0.00001672000000","-0.00000006","0.0000000000000","7198.126","101.295","823.255","816.727","PAYLOAD","SMALL","CIS","2009-09-17","TTMTR","","1357821","90764067","0 BLITS","1 35871U 09049G   12271.54605941 -.00000006  00000-0  16720-4 0  9990","2 35871 098.6347 322.9266 0004535 109.0087 251.1579 14.21588703156501"
"2.0","GENERATED VIA SPACE-TRACK.ORG API","2012-09-27T16:47:58","18 SPCS","BLITS","2009-049G","EARTH","TEME","UTC","SGP4","2012-09-27T14:47:40.685567","14.21588731","0.00045160","98.6347","322.9959","108.5282","251.6388","0","U","35871","999","15651","0.00001763800000","-0.00000004","0.0000000000000","7198.126","101.295","823.242","816.740","PAYLOAD","SMALL","CIS","2009-09-17","TTMTR","","1358007","90775097","0 BLITS","1 35871U 09049G   12271.61644312 -.00000004  00000-0  17638-4 0  9990","2 35871 098.6347 322.9959 0004516 108.5282 251.6388 14.21588731156515"
"2.0","GENERATED VIA SPACE-TRACK.ORG API","2012-09-28T01:47:42","18 SPCS","BLITS","2009-049G","EARTH","TEME","UTC","SGP4","2012-09-28T02:37:08.688575","14.21588920","0.00045070","98.6349","323.4781","106.2422","253.9247","0","U","35871","999","15658","0.00002292900000","0.00000007","0.0000000000000","7198.125","101.295","823.234","816.746","PAYLOAD","SMALL","CIS","2009-09-17","TTMTR","","1358259","90777709","0 BLITS","1 35871U 09049G   12272.10912834  .00000007  00000-0  22929-4 0  9993","2 35871 098.6349 323.4781 0004507 106.2422 253.9247 14.21588920156583"
"2.0","GENERATED VIA SPACE-TRACK.ORG API","2012-09-28T16:37:20","18 SPCS","BLITS","2009-049G","EARTH","TEME","UTC","SGP4","2012-09-28T17:49:19.001856","14.21589027","0.00045180","98.6349","324.0978","104.4960","255.6717","0","U","35871","999","15667","0.00002485000000","0.00000011","0.0000000000000","7198.125","101.295","823.242","816.738","PAYLOAD","SMALL","CIS","2009-09-17","TTMTR","","1358729","90791353","0 BLITS","1 35871U 09049G   12272.74258104  .00000011  00000-0  24850-4 0  9996","2 35871 098.6349 324.0978 0004518 104.4960 255.6717 14.21589027156677"
"2.0","GENERATED VIA SPACE-TRACK.ORG API","2012-09-29T00:40:35","18 SPCS","BLITS","2009-049G","EARTH","TEME","UTC","SGP4","2012-09-29T02:16:04.725695","14.21589090","0.00045150","98.6347","324.4419","103.1308","257.0369","0","U","35871","999","15672","0.00002514600000","0.00000012","0.0000000000000","7198.125","101.295","823.240","816.740","PAYLOAD","SMALL","CIS","2009-09-17","TTMTR","","1358863","90793744","0 BLITS","1 35871U 09049G   12273.09449914  .00000012  00000-0  25146-4 0  9996","2 35871 098.6347 324.4419 0004515 103.1308 257.0369 14.21589090156723"
"2.0","GENERATED VIA SPACE-TRACK.ORG API","2012-09-29T16:41:43","18 SPCS","BLITS","2009-049G","EARTH","TEME","UTC","SGP4","2012-09-29T17:28:15.026015","14.21588940","0.00045290","98.6345","325.0618","102.1895","257.9760","0","U","35871","999","15681","0.00001874000000","-0.00000002","0.0000000000000","7198.125","101.295","823.250","816.730","PAYLOAD","SMALL","CIS","2009-09-17","TTMTR","","1359147","90807322","0 BLITS","1 35871U 09049G   12273.72795169 -.00000002  00000-0  18740-4 0  9994","2 35871 098.6345 325.0618 0004529 102.1895 257.9760 14.21588940156811"
"2.0","GENERATED VIA SPACE-TRACK.ORG API","2012-09-30T00:37:48","18 SPCS","BLITS","2009-049G","EARTH","TEME","UTC","SGP4","2012-09-30T03:36:21.940416","14.21588760","0.00045640","98.6346","325.4752","100.8583","259.3081","0","U","35871","999","15687","0.00001054500000","-0.00000020","0.0000000000000","7198.126","101.295","823.276","816.706","PAYLOAD","SMALL","CIS","2009-09-17","TTMTR","","1359261","90809810","0 BLITS","1 35871U 09049G   12274.15025394 -.00000020  00000-0  10545-4 0  9993","2 35871 098.6346 325.4752 0004564 100.8583 259.3081 14.21588760156871"
"2.0","GENERATED VIA SPACE-TRACK.ORG API","2012-09-30T16:41:52","18 SPCS","BLITS","2009-049G","EARTH","TEME","UTC","SGP4","2012-09-30T17:07:11.162495","14.21588665","0.00045140","98.6346","326.0261","99.1219","261.0464","0","U","35871","999","15695","0.00000568100000","-0.00000031","0.0000000000000","7198.126","101.295","823.240","816.742","PAYLOAD","SMALL","CIS","2009-09-17","TTMTR","","1359530","90822824","0 BLITS","1 35871U 09049G   12274.71332364 -.00000031  00000-0  56810-5 0  9991","2 35871 098.6346 326.0261 0004514 099.1219 261.0464 14.21588665156952"
"2.0","GENERATED VIA SPACE-TRACK.ORG API","2012-10-01T00:36:56","18 SPCS","BLITS","2009-049G","EARTH","TEME","UTC","SGP4","2012-10-01T01:33:56.907936","14.21588651","0.00045140","98.6346","326.3703","98.2589","261.9101","0","U","35871","999","15700","0.00000447740000","-0.00000033","0.0000000000000","7198.126","101.295","823.240","816.742","PAYLOAD","SMALL","CIS","2009-09-17","TTMTR","","1359650","90825407","0 BLITS","1 35871U 09049G   12275.06524199 -.00000033  00000-0  44774-5 0  9997","2 35871 098.6346 326.3703 0004514 098.2589 261.9101 14.21588651157005"
"2.0","GENERATED VIA SPACE-TRACK.ORG API","2012-10-01T08:48:10","18 SPCS","BLITS","2009-049G","EARTH","TEME","UTC","SGP4","2012-10-01T03:15:18.054431","14.21588635","0.00045170","98.6346","326.4392","98.0465","262.1223","0","U","35871","999","15701","0.00000399530000","-0.00000034","0.0000000000000","7198.126","101.295","823.243","816.740","PAYLOAD","SMALL","CIS","2009-09-17","TTMTR","","1359817","90828414","0 BLITS","1 35871U 09049G   12275.13562563 -.00000034  00000-0  39953-5 0  9996","2 35871 098.6346 326.4392 0004517 098.0465 262.1223 14.21588635157015"
"2.0","GENERATED VIA SPACE-TRACK.ORG API","2012-10-01T16:46:21","18 SPCS","BLITS","2009-049G","EARTH","TEME","UTC","SGP4","2012-10-01T16:46:07.276512","14.21588519","0.00045680","98.6344","326.9900","96.3916","263.7799","0","U","35871","999","15709","-0.00000284270000","-0.00000049","0.0000000000000","7198.127","101.295","823.280","816.704","PAYLOAD","SMALL","CIS","2009-09-17","TTMTR","","1360069","90838799","0 BLITS","1 35871U 09049G   12275.69869533 -.00000049  00000-0 -28427-5 0  9995","2 35871 098.6344 326.9900 0004568 096.3916 263.7799 14.21588519157095"
"2.0","GENERATED VIA SPACE-TRACK.ORG API","2012-10-02T00:45:32","18 SPCS","BLITS","2009-049G","EARTH","TEME","UTC","SGP4","2012-10-02T01:12:52.984800","14.21588527","0.00045400","98.6348","327.3342","95.0770","265.0931","0","U","35871","999","15714","-0.00000289670000","-0.00000049","0.0000000000000","7198.127","101.295","823.260","816.724","PAYLOAD","SMALL","CIS","2009-09-17","TTMTR","","1360227","90841671","0 BLITS","1 35871U 09049G   12276.05061325 -.00000049  00000-0 -28967-5 0  9998","2 35871 098.6348 327.3342 0004540 095.0770 265.0931 14.21588527157146"
"2.0","GENERATED VIA SPACE-TRACK.ORG API","2012-10-02T08:46:25","18 SPCS","BLITS","2009-049G","EARTH","TEME","UTC","SGP4","2012-10-02T02:54:14.123520","14.21588732","0.00045120","98.6344","327.4035","95.5347","264.6378","0","U","35871","999","15715","0.00000209000000","-0.00000039","0.0000000000000","7198.126","101.295","823.239","816.743","PAYLOAD","SMALL","CIS","2009-09-17","TTMTR","","1360381","90844555","0 BLITS","1 35871U 09049G   12276.12099680 -.00000039  00000-0  20900-5 0  9998","2 35871 098.6344 327.4035 0004512 095.5347 264.6378 14.21588732157155"
"2.0","GENERATED VIA SPACE-TRACK.ORG API","2012-10-03T00:40:00","18 SPCS","BLITS","2009-049G","EARTH","TEME","UTC","SGP4","2012-10-03T02:33:10.120032","14.21589771","0.00045290","98.6332","328.3692","92.5362","267.6392","0","U","35871","999","15729","-0.00000510020000","-0.00000054","0.0000000000000","7198.122","101.295","823.247","816.727","PAYLOAD","SMALL","CIS","2009-09-17","TTMTR","","1360789","90856753","0 BLITS","1 35871U 09049G   12277.10636713 -.00000054  00000-0 -51002-5 0  9996","2 35871 098.6332 328.3692 0004529 092.5362 267.6392 14.21589771157291"
